CIC_OEM_VERS = 2.0
CREATION_DATE = 2025-01-18T19:38:29.228695
ORIGINATOR = ISAE-SUPAERO


META_START
OBJECT_NAME = Sat
OBJECT_ID = Sat
CENTER_NAME = Earth
REF_FRAME = EME2000
TIME_SYSTEM = UTC
START_TIME = 2025-01-18T11:23:17.636
USEABLE_START_TIME = 2025-01-18T11:23:17.636
USEABLE_STOP_TIME = 2025-01-18T23:59:17.636
STOP_TIME = 2025-01-18T23:59:17.636
INTERPOLATION = lagrange
INTERPOLATION_DEGREE = 5
META_STOP



60693 40997.636 2329.3446000000004 -6470.2658 14.699869000000001 -0.95317675 -0.32672584 7.5517351
60693 41417.636 1695.7141000000001 -5914.8918 3071.3737 -2.0092726 2.9227601 6.7399377000000005
60693 41837.636 701.24756 -4100.6484 5472.077200000001 -2.638735 5.550018000000001 4.4971987
60693 42257.636 -441.81965 -1415.6727 6705.439 -2.708682 7.002925500000001 1.291993
60693 42677.636 -1492.0705 1570.6970000000001 6516.084400000001 -2.2013953 6.9610244 -2.1829092
60693 43097.636 -2227.1391000000003 4225.1561 4946.7608 -1.2250575 5.4350547 -5.1893061
60693 43517.636 -2487.4636 5978.7835000000005 2320.5251000000003 0.0093914813 2.7628092000000004 -7.0963521
60693 43937.636 -2219.5609 6463.023 -800.4335400000001 1.2432835 -0.49859041000000004 -7.4959797
60693 44357.636 -1480.2782 5574.638599999999 -3750.7619 2.2127646 -3.6523928000000003 -6.3010741
60693 44777.636 -425.0451 3497.0639 -5899.991 2.7146309 -6.0333145 -3.7735722000000003
60693 45197.636 719.83557 679.96746 -6796.3315999999995 2.6387844 -7.1330902 -0.43324147
60693 45617.636 1712.5927 -2281.5166 -6250.469400000001 1.9999392 -6.7101783 2.9977265
60693 46037.636 2342.0672999999997 -4757.6194000000005 -4378.5623 0.9369857500000001 -4.8617805 5.7845725
60693 46457.636 2473.9163 -6223.402099999999 -1572.309 -0.32373926999999997 -1.9862632000000002 7.3447209
60693 46877.636 2080.1023 -6367.036099999999 1569.5792 -1.5176478 1.3146018 7.3454611000000005
60693 47297.636 1244.7337 -5159.1477 4377.5755 -2.3881221999999998 4.3321949 5.7844307
60693 47717.636 145.07572000000002 -2856.7588 6256.0132 -2.7515368 6.427082599999999 2.9992973000000003
60693 48137.636 -984.94002 48.551218999999996 6808.8197 -2.5327905 7.158755500000001 -0.41349609
60693 48557.636 -1907.1537 2943.636 5921.1462 -1.7797436 6.3795872000000005 -3.7375873000000004
60693 48977.636 -2426.7092000000002 5217.129599999999 3780.1428 -0.64951346 4.2512813 -6.274509200000001
60693 49397.636 -2433.0541000000003 6387.246700000001 837.67926 0.62017286 1.2194594 -7.4842239
60693 49817.636 -1923.7741 6203.571400000001 -2282.3017000000004 1.7586728 -2.0698078 -7.1078980000000005
60693 50237.636 -1005.2963000000001 4700.8112 -4916.6854 2.5272339 -4.9259218 -5.226738
60693 50657.636 125.84177000000001 2201.9527000000003 -6503.8026 2.7611223000000003 -6.741009600000001 -2.233424
60693 51077.636 1230.7821999999999 -761.77433 -6716.4501 2.4063053 -7.1184764 1.2368050000000002
60693 51497.636 2075.2012 -3564.6116 -5502.399 1.5423114 -5.9878010999999995 4.4395003
60693 51917.636 2480.2814 -5612.7675 -3120.1983 0.35193932 -3.5896608999999997 6.6991183
60693 52337.636 2360.4214 -6473.034900000001 -75.712716 -0.91216194 -0.43362777999999996 7.5362019
60693 52757.636 1741.6346 -5965.117200000001 2984.948 -1.9810598 2.8074167 6.7763547
60693 53177.636 755.57365 -4199.460099999999 5415.0608 -2.6298059 5.4480008 4.5886587
60693 53597.636 -389.35298 -1550.916 6703.968900000001 -2.724698 6.9382073 1.4396224
60693 54017.636 -1452.5125 1423.2294 6581.5469 -2.2472913 6.9710809000000005 -2.0131261
60693 54437.636 -2210.1044 4097.7105 5071.3369 -1.2949128 5.5351274 -5.0512236
60693 54857.636 -2500.841 5906.4346 2487.2049 -0.063778137 2.9203788 -7.031821
60693 55277.636 -2261.0224 6461.7749 -625.37726 1.185783 -0.32547071 -7.521386400000001
60693 55697.636 -1540.134 5642.1516 -3604.382 2.184822 -3.50687 -6.406348100000001
60693 56117.636 -491.45853999999997 3621.7506000000003 -5814.2880000000005 2.7183017 -5.9390731 -3.9268530999999998
60693 56537.636 661.40893 832.17731 -6784.4985 2.6738509 -7.1079694 -0.6113796300000001
60693 56957.636 1674.63 -2135.3115000000003 -6312.3791 2.0598696 -6.7625755 2.8337725999999996
60693 57377.636 2332.936 -4649.3045 -4501.0455999999995 1.0092617000000002 -4.9802662 5.6673532
60693 57797.636 2496.4486 -6177.7835000000005 -1731.0240000000001 -0.25442601 -2.1448622999999998 7.2967085
60693 58217.636 2128.7906000000003 -6391.8213 1408.2794 -1.4646056 1.1438258000000001 7.381398900000001
60693 58637.636 1309.9255 -5251.1038 4248.1795 -2.3642715 4.189743099999999 5.897472700000001
60693 59057.636 213.58626 -2998.251 6186.1140000000005 -2.7622295 6.3441433 3.1651877
60693 59477.636 -927.97855 -111.427 6812.887900000001 -2.5759986 7.155141800000001 -0.2339251
60693 59897.636 -1873.4981 2798.9167 5996.4453 -1.8453543000000001 6.4541075 -3.5841615000000004
60693 60317.636 -2422.8396000000002 5117.3027 3908.5114 -0.7228773300000001 4.3855809 -6.179184500000001
60693 60737.636 -2458.8779 6351.3270999999995 990.5261 0.55466603 1.3839448 -7.4648274
60693 61157.636 -1973.5348000000001 6238.526 -2138.1673 1.7146371999999999 -1.91112 -7.163667
60693 61577.636 -1067.7403000000002 4796.4312 -4809.658 2.51316 -4.803459200000001 -5.3469222
60693 61997.636 64.46900600000001 2337.981 -6460.1549 2.778103 -6.6771215 -2.3885156000000003
60693 62417.636 1182.8242 -616.15423 -6735.695 2.4527006 -7.1328391 1.0812985000000002
60693 62837.636 2050.898 -3438.8858999999998 -5584.4764000000005 1.6050251000000002 -6.0680837 4.3159448000000005
60693 63257.636 2483.341 -5531.6994 -3242.2701 0.41680163 -3.7171369 6.635594500000001
60693 63677.636 2388.4495 -6449.8088 -209.69887 -0.86033781 -0.57613232 7.5432157
60693 64097.636 1786.6926 -5999.2273 2867.7306000000003 -1.9528391999999999 2.6812721 6.846161
60693 64517.636 806.7342199999999 -4279.012900000001 5337.1583 -2.6290245 5.3606693 4.7018609
60693 64937.636 -343.38906000000003 -1656.6629 6678.7565 -2.7495329 6.9021038 1.5735409
60693 65357.636 -1421.4246 1314.0201000000002 6612.9537 -2.2921536000000002 6.9909419 -1.8811181
60693 65777.636 -2200.7455 4008.4502 5153.8863 -1.3520315 5.6093002 -4.9433668
60693 66197.636 -2516.4669 5858.3342999999995 2606.5063999999998 -0.12350427000000001 3.0394238000000002 -6.9696069
60693 66617.636 -2300.2727000000004 6469.6979 -492.75302000000005 1.1350772999999998 -0.18194211000000002 -7.523098699999999
60693 67037.636 -1596.6335000000001 5710.1043 -3487.2966 2.1552042 -3.3702552999999997 -6.4782318
60693 67457.636 -554.36917 3739.5664 -5740.3294000000005 2.7182471 -5.843551000000001 -4.0562682
60693 67877.636 605.44812 976.34925 -6773.4130000000005 2.7049477000000004 -7.0768755 -0.77435387
60693 68297.636 1637.0184 -1993.8154 -6367.2572 2.1187514999999997 -6.811150400000001 2.6717257
60693 68717.636 2321.6252000000004 -4541.1955 -4608.1686 1.0821347000000001 -5.0997058 5.5538632
60693 69137.636 2513.4548 -6124.6151 -1868.3649 -0.18522192999999998 -2.3039617 7.2563137
60693 69557.636 2171.6957 -6407.8547 1269.2786 -1.4124189 0.97862993 7.4138854
60693 69977.636 1369.7768999999998 -5333.3828 4137.3457 -2.3372323 4.0444794 5.9985607000000005
60693 70397.636 278.38545 -3132.3403 6129.9926 -2.7661146 6.2465109000000005 3.3213287
60693 70817.636 -871.6794100000001 -272.15711 6829.6984 -2.6124132 7.1294152 -0.04820639
60693 71237.636 -1838.6643000000001 2645.1992 6090.9965999999995 -1.9097368 6.5140832 -3.4070497
60693 71657.636 -2418.8705 5005.981900000001 4067.947 -0.8029352000000001 4.5249316 -6.0548556
60693 72077.636 -2488.4884 6310.025900000001 1184.1343000000002 0.47788097 1.5714899 -7.429167400000001
60693 72497.636 -2031.1853 6277.8327 -1950.585 1.6607767 -1.7229922 -7.2277688
60693 72917.636 -1143.0061 4913.929400000001 -4670.338400000001 2.4922171 -4.6544596 -5.4886283
60693 73337.636 -12.32138 2507.5886 -6396.7717 2.7946413 -6.5969629 -2.5838131
60693 73757.636 1121.0187 -430.36489 -6763.5909 2.5046917 -7.1403309 0.86839933
60693 74177.636 2017.8982 -3278.3964 -5697.3901 1.6807956 -6.1631911 4.1394248
60693 74597.636 2485.4307000000003 -5428.5228 -3416.4607 0.50247765 -3.8842477 6.5291074
60693 75017.636 2425.271 -6425.849700000001 -408.80765 -0.78406737 -0.778506 7.5339617
60693 75437.636 1850.3172 -6059.267900000001 2685.9119 -1.9040936 2.4918508999999998 6.935951
60693 75857.636 881.8968199999999 -4403.9407 5207.0973 -2.6208582000000002 5.2332126 4.8682664
60693 76277.636 -274.93993 -1811.0033 6621.166 -2.7823284 6.8678601 1.7609973
60693 76697.636 -1374.153 1166.6083 6630.3746 -2.3481958 7.0345197 -1.7296443
60693 77117.636 -2179.8204 3891.8050000000003 5227.7381 -1.4164905 5.706853199999999 -4.8428469
60693 77537.636 -2522.5208 5790.3191 2712.1573 -0.18309852000000001 3.1665101 -6.9290533
60693 77957.636 -2328.2678 6456.621400000001 -383.11670000000004 1.0915248 -0.051547837 -7.5426455
60693 78377.636 -1638.5176000000001 5748.9243 -3396.7489 2.1331408 -3.2562842 -6.5476758
60693 78797.636 -601.2360600000001 3821.6697999999997 -5687.3642 2.7188365 -5.7592831 -4.1646362
60693 79217.636 563.72018 1084.7864 -6771.8985999999995 2.7288186999999997 -7.038296900000001 -0.90882932
60693 79637.636 1609.9173 -1881.0543 -6424.6716 2.1637999 -6.8313841 2.5318509
60693 80057.636 2317.0062000000003 -4450.6245 -4720.429700000001 1.1427148 -5.1848936000000005 5.4380503
60693 80477.636 2535.5398 -6081.6896 -2018.269 -0.12118496000000001 -2.4415964 7.1979467999999995
60693 80897.636 2218.5047000000004 -6428.116400000001 1111.2031000000002 -1.3612720999999999 0.8215142 7.4352412
60693 81317.636 1432.5762 -5415.9574 4005.2077000000004 -2.3136354000000003 3.910843 6.0970611
60693 81737.636 344.02554 -3259.7731000000003 6050.9233 -2.7766691000000003 6.1717982000000005 3.4690743000000004
60693 82157.636 -817.17134 -415.43577000000005 6815.8563 -2.6533881999999998 7.1291957 0.10745297
60693 82577.636 -1805.7016 2516.4655000000002 6137.2600999999995 -1.9688941 6.5807181 -3.2818821
60693 82997.636 -2413.4656 4917.880700000001 4160.6118 -0.8651479000000001 4.6335565 -5.9773579
60693 83417.636 -2510.8723999999997 6279.069 1302.5045 0.42250256 1.7027575 -7.4021567
60693 83837.636 -2073.8164 6303.9048 -1834.0853000000002 1.6199837000000001 -1.5834653 -7.263702599999999
60693 84257.636 -1198.0252 4995.076099999999 -4581.546200000001 2.4747508 -4.5351043 -5.5834261
60693 84677.636 -68.915734 2630.1774 -6357.897900000001 2.8051286 -6.5230903 -2.7236920000000002
60693 85097.636 1074.7963 -289.96959999999996 -6788.6951 2.5432412 -7.1324097 0.7091056099999999
60693 85517.636 1991.6648 -3148.8045 -5782.9581 1.7440852 -6.2360589 3.9945913
60693 85937.636 2487.6706 -5342.2676 -3551.7512 0.57378193 -4.0172755 6.4395836
60693 86357.636 2456.7802 -6403.8107 -567.29919 -0.72026063 -0.94273956 7.5194538
